[{"type": "way", "id": 122299530, "center": {"lat": 30.1710136, "lon": -95.4426124}, "nodes": [4658437709, 1367039813, 6286538259, 6286538240, 6286538277, 6286538676, 6286538226, 6286538209, 6286538611, 6286538618, 6286538619, 6286538658, 6286557521, 6286538644, 1367040595, 1367040581, 1367040584, 6286538207, 6286538257, 6286538215, 6286538616, 6286538663, 6286538249, 6286538213, 6286538673, 6286538652, 6286538605, 6286538604, 6286538589, 6286538592, 6286538594, 6286538678, 6286538263, 4658437712, 6286532082, 6286538599, 4658437709], "tags": {"amenity": "school", "isced:level": "3", "mascot": "War Eagles", "name": "Oak Ridge High School", "wikidata": "Q7073698"}}, {"type": "way", "id": 124444297, "center": {"lat": 30.1940847, "lon": -95.5030258}, "nodes": [235856749, 12601252979, 12601252978, 12123181421, 12123181423, 12601252980, 12123181420, 12123181419, 12123181418, 12123181417, 12123181416, 12123181415, 1385228407, 12421638472, 12123181413, 12123181412, 12123181414, 12123181411, 12123181410, 12123181409, 12123181408, 12123181407, 12123181406, 12123181398, 12123181399, 12123181400, 12123181401, 12123181402, 12123181403, 12123181404, 12123181405, 12123181395, 12123181396, 12123181397, 12123185818, 12123185819, 1390371439, 1385228423, 1385228410, 12601264624, 12136533099, 1385228406, 12136533100, 1390371440, 12123073359, 12123073362, 12123073361, 12123073360, 1385228402, 235530248, 235530246, 235530242, 235530237, 12123073377, 235530234, 12123073370, 9938986886, 9938986884, 9938986887, 9938986883, 12212752998, 12212775509, 12212775519, 12123073365, 12212775518, 12212775517, 12123073364, 12212775516, 235530231, 12212775515, 12123073363, 235856776, 235856773, 235856770, 235856762, 235856759, 235569207, 235856757, 235856755, 235856753, 235856749], "tags": {"amenity": "school", "ele": "57", "gnis:feature_id": "2007414", "mascot": "Highlanders", "name": "The Woodlands High School", "wikidata": "Q7775737", "wikipedia": "en:The Woodlands High School"}}, {"type": "way", "id": 124952094, "center": {"lat": 30.1678202, "lon": -95.499444}, "nodes": [5399766948, 1389051840, 1389051876, 5405766223, 5405762779, 5405762789, 5405766226, 5405762794, 5405762820, 5405766233, 5405762772, 5399766948], "tags": {"amenity": "school", "ele": "47", "gnis:feature_id": "2007405", "isced:level": "1", "name": "Sally Ride Elementary School"}}, {"type": "way", "id": 124962686, "center": {"lat": 30.1785222, "lon": -95.5030398}, "nodes": [235768516, 1505746060, 1389166851, 1389166854, 5700253432, 235768552, 8524242896, 7065535588, 235768548, 235768545, 235768542, 235768537, 235768533, 235768527, 235768522, 235768518, 235768516], "tags": {"amenity": "school", "ele": "49", "gnis:feature_id": "2007477", "isced:level": "1", "name": "David Elementary School"}}, {"type": "way", "id": 124963394, "center": {"lat": 30.1840103, "lon": -95.4931757}, "nodes": [1389172630, 1389172570, 1389172567, 1389172558, 1389172535, 1389172593, 1389172554, 1389172597, 1389172560, 1389172566, 1389172596, 1389172630], "tags": {"amenity": "school", "ele": "49", "gnis:feature_id": "2007474", "isced:level": "2", "name": "Collins Intermediate School"}}, {"type": "way", "id": 124964656, "center": {"lat": 30.1987641, "lon": -95.5112264}, "nodes": [1389185586, 5700253360, 1389185663, 1389185685, 1389185433, 1389185601, 1389185586], "tags": {"amenity": "school", "ele": "49", "gnis:feature_id": "2007400", "isced:level": "1", "name": "Powell Elementary School"}}, {"type": "way", "id": 124964669, "center": {"lat": 30.1970002, "lon": -95.5280101}, "nodes": [1389185481, 7956459323, 1389185541, 1389185674, 1391561725, 1389185610, 1389185617, 1389185682, 1389185523, 7956459091, 7956459173, 1389185481], "tags": {"amenity": "school", "ele": "49", "gnis:feature_id": "2007478", "isced:level": "1", "name": "Galatas Elementary School"}}, {"type": "way", "id": 124964670, "center": {"lat": 30.2201295, "lon": -95.5217153}, "nodes": [356807427, 1389185545, 1389185480, 1389185640, 5565178935, 1389185683, 5565178975, 1389185567, 356807427], "tags": {"amenity": "school", "ele": "58", "gnis:feature_id": "2007438", "isced:level": "2", "name": "Mitchell Intermediate School"}}, {"type": "way", "id": 126362568, "center": {"lat": 30.1741473, "lon": -95.5251229}, "nodes": [235533294, 12147943581, 1389051821, 1401002605, 1394355357, 1394355319, 3536187615, 12147943578, 1389051820, 1389051846, 3536187126, 3536187797, 3536187151, 3536187134, 3536187141, 235592583, 235592596, 12147943591, 235592604, 235592612, 235592615, 235592619, 235592621, 235592623, 235592627, 12147943590, 235592630, 12147943589, 12147943588, 235533308, 12147943587, 3966112926, 12147943584, 12147943586, 12147943583, 12147943585, 12147943582, 235533302, 235533294], "tags": {"addr:city": "The Woodlands", "addr:state": "TX", "amenity": "school", "isced:level": "0;1;2;3", "name": "The John Cooper School", "wikidata": "Q7743365", "wikipedia": "en:The John Cooper School"}}, {"type": "way", "id": 148206359, "center": {"lat": 30.1544847, "lon": -95.4554638}, "nodes": [1613123394, 1613123141, 1613123325, 1613123377, 1613123378, 1613123394], "tags": {"addr:city": "The Woodlands", "addr:housenumber": "1300", "addr:postcode": "77380", "addr:state": "TX", "addr:street": "Many Pines Drive", "amenity": "school", "ele": "44", "gnis:feature_id": "2007484", "isced:level": "1", "name": "Lamar Elementary School"}}, {"type": "way", "id": 219674429, "center": {"lat": 30.2044228, "lon": -95.4703134}, "nodes": [2288152137, 2288152145, 2288152143, 2288152149, 2288152148, 2288152139, 2288152141, 2288152138, 5787514396, 12148116914, 2288152142, 5787500320, 2288152137], "tags": {"addr:city": "The Woodlands", "addr:housenumber": "3701", "addr:postcode": "77384", "addr:street": "College Park Drive", "amenity": "school", "isced:level": "3", "mascot": "Cavaliers", "name": "The Woodlands College Park High School", "operator": "Conroe Independent School District", "wikidata": "Q7775735", "wikipedia": "en:The Woodlands College Park High School"}}, {"type": "way", "id": 560541180, "center": {"lat": 30.1671468, "lon": -95.5002157}, "nodes": [5405762779, 5405762814, 5405766234, 5405762794, 5405766226, 5405762789, 5405762779], "tags": {"amenity": "school", "isced:level": "0;1;2;3", "name": "Esprit International School", "website": "https://www.espritinternationalschool.com/"}}, {"type": "way", "id": 560564027, "center": {"lat": 30.1575941, "lon": -95.4962201}, "nodes": [820794357, 5405966357, 820794359, 5405966365, 11890765903, 11890765904, 5405966370, 5405966350, 5405966344, 5405966360, 5405966371, 5405966343, 5405966367, 5405966346, 5405966352, 820794357], "tags": {"addr:city": "The Woodlands", "addr:housenumber": "3800", "addr:state": "TX", "addr:street": "South Panther Creek Drive", "amenity": "school", "check_date": "2022-10-04", "ele": "48", "gnis:feature_id": "2007436", "isced:level": "2", "mascot": "Highlanders", "name": "McCullough Junior High School", "website": "https://mccullough.conroeisd.net/"}}, {"type": "way", "id": 581594904, "center": {"lat": 30.2111509, "lon": -95.5174392}, "nodes": [5564394587, 5564394586, 6001038996, 5564394601, 6001038775, 6001038777, 4630125999, 6001039288, 6001039225, 4630125998, 5564395531, 5564395586, 6001039035, 5564394584, 356807507, 5564394587], "tags": {"addr:city": "The Woodlands", "addr:housenumber": "7420", "addr:postcode": "77382", "addr:state": "TX", "addr:street": "Crownridge Drive", "amenity": "school", "ele": "52", "gnis:feature_id": "2007470", "grades": "0-4", "isced:level": "1", "name": "Barbara Bush Elementary", "official_name": "Barbara Pierce Bush Elementary School", "operator": "CISD", "operator:type": "community", "religion": "none", "website": "https://bush.conroeisd.net/"}}, {"type": "way", "id": 611236671, "center": {"lat": 30.2061089, "lon": -95.4885202}, "nodes": [5787472270, 12147983216, 5787472191, 5787472186, 5787472198, 5787472302, 5787472176, 12147983218, 5787472270], "tags": {"access": "private", "amenity": "school", "isced:level": "0;1;2;3", "name": "Woodlands Christian Academy"}}, {"type": "way", "id": 671295968, "center": {"lat": 30.1671918, "lon": -95.4400007}, "nodes": [6286532082, 4658437711, 6286538682, 6286538679, 6286538229, 1367039404, 6286538627, 6286538190, 6286538683, 6286538206, 6286538195, 6286538222, 1367039403, 6286538225, 6286538648, 4658437710, 6286538599, 6286532082], "tags": {"amenity": "school", "isced:level": "1", "name": "Houser Elementary School"}}, {"type": "way", "id": 671295971, "center": {"lat": 30.1705153, "lon": -95.4486712}, "nodes": [1367040343, 6286538675, 6286538596, 6286532081, 6286538188, 6286538598, 6286538625, 6286538633, 6286538612, 6286538242, 6286538245, 6286538246, 6286538233, 6286538243, 6286538237, 6286538614, 6286538653, 6286538210, 6286538247, 1367039816, 1367040343], "tags": {"amenity": "school", "isced:level": "1", "name": "Oak Ridge Elementary"}}, {"type": "way", "id": 671295975, "center": {"lat": 30.1714397, "lon": -95.4473332}, "nodes": [6286538640, 6286538210, 6286538653, 6286538614, 6286538237, 6286538243, 6286538233, 6286538246, 6286538245, 6286538242, 6286538674, 6286538273, 6286538595, 6286538628, 6286538650, 6286538626, 6286538230, 6286538208, 6286538660, 6286538217, 6286538231, 6286538264, 6286538684, 6286538615, 6286538261, 6286538649, 6286538630, 6286532080, 6286538621, 6286538276, 6286538275, 6286538640], "tags": {"addr:city": "Conroe", "addr:housenumber": "27330", "addr:state": "TX", "addr:street": "Oak Ridge School Road", "amenity": "school", "isced:level": "3", "mascot": "War Eagles", "name": "Oak Ridge High School 9th Grade Campus", "operator": "Conroe Independent School District", "website": "https://orhs9.conroeisd.net/"}}]