[{"type": "way", "id": 106994433, "center": {"lat": 29.746692, "lon": -95.7786988}, "nodes": [6143067170, 1222691087, 1222691136, 1222691120, 1222691098, 1222691125, 1222691097, 1222691092, 13243726480, 1222691142, 6143067356, 6143067401, 4773024532, 6143067363, 6143067296, 6143067461, 4773024531, 6143067345, 4773024529, 6143067490, 6143067506, 4773024528, 6143067357, 6143022028, 6143022059, 1309733859, 1309733862, 1309733861, 1309733863, 1309733864, 1309733865, 1309733853, 1222691113, 1248861560, 1222691108, 1222691114, 1230242979, 1222691102, 1222691131, 1222691139, 1222691081, 1222691083, 1230242913, 1230243180, 1248861632, 1230242652, 1222691118, 1230242771, 1222691129, 6143067404, 6143067364, 6143067332, 6143067505, 6143067331, 6143067420, 6143067157, 6143067438, 4773024533, 6143067445, 6143067170], "tags": {"addr:city": "Katy", "addr:housenumber": "23440", "addr:postcode": "77494", "addr:state": "TX", "addr:street": "Cinco Ranch Boulevard", "amenity": "school", "isced:level": "3", "mascot": "Cougars", "name": "Cinco Ranch High School", "operator": "Katy Independent School District", "operator:short": "KISD", "operator:type": "public", "operator:wikidata": "Q6378510", "website": "https://crhs.katyisd.org", "wikidata": "Q5120378"}}, {"type": "way", "id": 116061444, "center": {"lat": 29.7422502, "lon": -95.7801934}, "nodes": [1222691129, 6143067404, 6143067364, 1309733854, 1309733855, 1309733856, 1309733857, 1309733844, 1222691109, 1309733846, 1309733847, 1309733848, 1309733850, 1309733851, 1309733852, 1309733853, 1222691113, 1248861560, 1222691108, 1222691114, 1230242979, 1222691102, 1222691131, 1222691139, 1222691081, 1222691083, 1230242913, 1230243180, 1230242652, 1222691118, 1230242771, 1222691129], "tags": {"addr:city": "Katy", "addr:housenumber": "23420", "addr:postcode": "77494", "addr:state": "TX", "addr:street": "Cinco Ranch Boulevard", "amenity": "school", "isced:level": "2", "name": "Cinco Ranch Junior High", "operator": "Katy Independent School District", "operator:short": "KISD", "operator:type": "public", "operator:wikidata": "Q6378510", "website": "https://crjh.katyisd.org"}}, {"type": "way", "id": 116286688, "center": {"lat": 29.7420205, "lon": -95.7914417}, "nodes": [1311401776, 1311401777, 5871185492, 1311401744, 5871185499, 6150152232, 1311401797, 1311401776], "tags": {"addr:city": "Katy", "addr:housenumber": "24831", "addr:postcode": "77494", "addr:state": "TX", "addr:street": "Westheimer Parkway", "amenity": "school", "isced:level": "1", "name": "Roberta Wright Rylander Elementary", "operator": "Katy Independent School District"}}, {"type": "way", "id": 116290970, "center": {"lat": 29.7978526, "lon": -95.7643786}, "nodes": [1311409339, 1311409341, 1311409327, 1311409347, 1311409345, 1311409330, 3935166614, 3935166615, 1311409344, 3952849978, 3952849947, 5904862144, 5904862143, 1311409339], "tags": {"addr:city": "Katy", "addr:housenumber": "22555", "addr:postcode": "77449", "addr:state": "TX", "addr:street": "Prince George Lane", "amenity": "school", "ele": "41", "isced:level": "1", "name": "Diane Winborn Elementary", "operator": "Katy Independent School District"}}, {"type": "way", "id": 116290971, "center": {"lat": 29.7987064, "lon": -95.7870006}, "nodes": [1363041735, 1363041729, 1311409343, 1311409336, 1311409337, 1311409329, 1311409338, 1311409331, 1311409328, 5904289636, 1311409332, 1311409342, 1311409333, 1311409334, 1311409349, 1311409340, 1311409335, 1363041735], "tags": {"addr:city": "Katy", "addr:housenumber": "1901", "addr:postcode": "77493", "addr:state": "TX", "addr:street": "Charlton House Lane", "amenity": "school", "ele": "42", "isced:level": "1", "name": "Robert King Elementary", "operator": "Katy Independent School District", "operator:short": "KISD", "operator:type": "public", "operator:wikidata": "Q6378510"}}, {"type": "way", "id": 116291037, "center": {"lat": 29.8232433, "lon": -95.745575}, "nodes": [1357271260, 1311410310, 1311410311, 5725924431, 5725924455, 1311410342, 1311410330, 1311410305, 1311410348, 1311410289, 1357271414, 1357271260], "tags": {"addr:city": "Katy", "addr:housenumber": "3535", "addr:postcode": "77449", "addr:state": "TX", "addr:street": "Lakes of Bridgewater Drive", "amenity": "school", "ele": "39", "isced:level": "1", "name": "Loraine Golbow Elementary", "operator": "Katy Independent School District"}}, {"type": "way", "id": 116291038, "center": {"lat": 29.808678, "lon": -95.7431998}, "nodes": [1311410328, 6117182338, 6117181901, 6117182139, 1311410308, 3953935715, 3953935716, 3953935720, 3953935748, 3953935892, 3953935963, 3953936054, 3953936084, 3946561210, 6117182365, 6117181998, 6117182275, 6117182336, 1311410345, 6117182154, 6117182005, 6117182401, 6117181945, 3953936046, 6117182062, 6117182146, 1311410328], "tags": {"addr:city": "Katy", "addr:housenumber": "2498", "addr:postcode": "77449", "addr:state": "TX", "addr:street": "North Mason Road", "amenity": "school", "isced:level": "2", "name": "Morton Ranch Junior High", "operator": "Katy Independent School District", "operator:short": "KISD", "operator:type": "public", "operator:wikidata": "Q6378510"}}, {"type": "way", "id": 116291039, "center": {"lat": 29.8082793, "lon": -95.7466278}, "nodes": [1311410315, 1311410346, 3953935688, 1311410335, 3953935689, 1311410285, 1311410292, 1311410309, 3953936025, 3953936131, 3953936172, 3953936181, 3953936188, 3953936204, 1311410295, 1311410315], "tags": {"addr:city": "Katy", "addr:housenumber": "2502", "addr:postcode": "77449", "addr:state": "TX", "addr:street": "North Mason Road", "amenity": "school", "isced:level": "1", "name": "Morton Ranch Elementary", "operator": "Katy Independent School District"}}, {"type": "way", "id": 116291041, "center": {"lat": 29.8047089, "lon": -95.7449747}, "nodes": [1311410298, 3813405005, 3813404826, 3946561253, 1311410318, 3813404592, 1311410340, 3813404505, 1311410327, 1311410338, 3813404417, 1311410325, 3813404395, 3813404393, 3813404389, 3813404390, 3813404391, 3813404392, 1311410334, 1311410296, 1311410332, 1311410337, 3813404385, 3813404386, 3813404387, 1311410316, 3813404398, 1311410294, 1311410302, 3813404475, 1311410324, 1311410333, 1311410293, 3813404690, 1311410312, 1311410303, 1311410304, 1311410339, 3813404915, 3813404936, 3813404963, 1311410343, 1311410290, 1311410313, 1311410286, 3813405034, 3813405040, 1311410336, 3813405047, 3813405051, 3813405050, 3813405049, 3813405048, 1311410322, 3813405039, 1311410344, 1311410300, 1311410288, 1311410291, 3813405033, 1311410323, 1311410321, 1311410320, 1311410306, 1311410298], "tags": {"addr:city": "Katy", "addr:housenumber": "21000", "addr:postcode": "77449", "addr:state": "TX", "addr:street": "Franz Road", "amenity": "school", "isced:level": "3", "mascot": "Mavericks", "name": "Morton Ranch High School", "operator": "Katy Independent School District", "wikidata": "Q6914937"}}, {"type": "way", "id": 116291113, "center": {"lat": 29.8019532, "lon": -95.7259639}, "nodes": [1311411329, 1311411345, 1311411337, 1311411351, 1311411346, 1311411364, 1311411353, 1311411328, 1311411329], "tags": {"addr:city": "Katy", "addr:housenumber": "20100", "addr:postcode": "77449", "addr:state": "TX", "addr:street": "Saums Road", "amenity": "school", "ele": "38", "isced:level": "1", "name": "Sundown Elementary", "operator": "Katy Independent School District"}}, {"type": "way", "id": 116291417, "center": {"lat": 29.8292522, "lon": -95.7059786}, "nodes": [1311415567, 1311415566, 1311415570, 7837756410, 7837756409, 1311415573, 1311415621, 1311415572, 1311415605, 1311415590, 1311415602, 5725843684, 5725843540, 5725843557, 5725843517, 5725843563, 5725843619, 5725843855, 1311415567], "tags": {"addr:city": "Katy", "addr:housenumber": "3900", "addr:postcode": "77449", "addr:state": "TX", "addr:street": "Dayflower Drive", "amenity": "school", "isced:level": "2", "name": "Cardiff Junior High", "operator": "Katy Independent School District"}}, {"type": "way", "id": 116291424, "center": {"lat": 29.8233464, "lon": -95.7213211}, "nodes": [1311415604, 1311415603, 1311415584, 1311415574, 1412681688, 1311415614, 1311415571, 1311415604], "tags": {"addr:city": "Katy", "addr:housenumber": "3535", "addr:postcode": "77449", "addr:state": "TX", "addr:street": "North Fry Road", "amenity": "school", "ele": "40", "isced:level": "1", "name": "Polly Ann McRoberts Elementary", "operator": "Katy Independent School District", "operator:short": "KISD", "operator:type": "public", "operator:wikidata": "Q6378510"}}, {"type": "way", "id": 116291984, "center": {"lat": 29.8058373, "lon": -95.7026934}, "nodes": [1311423242, 1311423232, 1311423245, 151738193, 1266302879, 1311423236, 1266302861, 6167510716, 5771911839, 5771911838, 1311423242], "tags": {"addr:city": "Houston", "addr:housenumber": "2698", "addr:postcode": "77084", "addr:state": "TX", "addr:street": "Greenhouse Road", "amenity": "school", "ele": "32", "isced:level": "1", "name": "Mayde Creek Elementary", "operator": "Katy Independent School District", "operator:short": "KISD", "operator:type": "public", "operator:wikidata": "Q6378510"}}, {"type": "way", "id": 116291987, "center": {"lat": 29.8076054, "lon": -95.7025821}, "nodes": [1311423239, 1311423230, 1311423241, 5771946749, 1311423238, 1311423245, 151738193, 1266302879, 1311423239], "tags": {"addr:city": "Houston", "addr:housenumber": "2700", "addr:postcode": "77084", "addr:state": "TX", "addr:street": "Greenhouse Road", "amenity": "school", "ele": "32", "isced:level": "2", "name": "Mayde Creek Junior High", "operator": "Katy Independent School District", "operator:short": "KISD", "operator:type": "public", "operator:wikidata": "Q6378510"}}, {"type": "way", "id": 116294001, "center": {"lat": 29.7659731, "lon": -95.7712312}, "nodes": [1311450016, 1311450125, 1311450165, 1311450164, 1311450146, 1311450064, 1311450016], "tags": {"addr:city": "Katy", "addr:housenumber": "1100", "addr:postcode": "77450", "addr:state": "TX", "addr:street": "South Peek Road", "amenity": "school", "ele": "37", "isced:level": "1", "name": "Cimarron Elementary", "operator": "Katy Independent School District", "source": "Bing"}}, {"type": "way", "id": 116294007, "center": {"lat": 29.751871, "lon": -95.7715645}, "nodes": [1311450086, 1311450147, 1311450179, 1311450153, 1311450194, 1311450021, 1311450062, 1311450083, 1311450163, 10268710050, 10268710041, 1311450206, 1311450196, 10268710040, 10268704854, 1311450024, 1311450086], "tags": {"addr:city": "Katy", "addr:housenumber": "2100", "addr:postcode": "77494", "addr:state": "TX", "addr:street": "Greenway Village Drive", "amenity": "school", "check_date": "2025-08-04", "ele": "37", "grades": "0-5", "isced:level": "1", "name": "Edna Mae Fielder Elementary", "operator": "Katy Independent School District", "operator:short": "KISD", "operator:type": "public", "operator:wikidata": "Q6378510", "source": "Bing"}}, {"type": "way", "id": 116294318, "center": {"lat": 29.7647301, "lon": -95.7459764}, "nodes": [1311463246, 1311463234, 1311463262, 5903995644, 1311463222, 9319908713, 9322168573, 1311463224, 1311463256, 1311463216, 1311463244, 1311463251, 1311463246], "tags": {"addr:city": "Katy", "addr:housenumber": "21603", "addr:postcode": "77450", "addr:state": "TX", "addr:street": "Park Tree Lane", "amenity": "school", "ele": "36", "isced:level": "1", "name": "Memorial Parkway Elementary", "operator": "Katy Independent School District", "operator:type": "public", "source": "Bing"}}, {"type": "way", "id": 390356870, "center": {"lat": 29.799992, "lon": -95.7721687}, "nodes": [3935221071, 3935221047, 3935220633, 3935220039, 3935220040, 3935220050, 3935220002, 3935220003, 3935219999, 3935219997, 3935219991, 3935219986, 3935219989, 3935219992, 3935219998, 3935220001, 3935220005, 3935220007, 3935220892, 3935221086, 3935221084, 3935221082, 3935221080, 3935221076, 3935221075, 3935221074, 3935221071], "tags": {"addr:city": "Katy", "addr:housenumber": "1800", "addr:state": "TX", "addr:street": "West Grand Parkway North", "amenity": "school", "isced:level": "3", "mascot": "Lions", "name": "St. John XXIII High School", "website": "https://www.sj23lions.org/", "wikidata": "Q7229205"}}, {"type": "way", "id": 603021499, "center": {"lat": 29.8075002, "lon": -95.7230929}, "nodes": [5725843336, 1311415616, 1311415589, 5725843742, 5725843336], "tags": {"addr:city": "Katy", "addr:housenumber": "2715", "addr:postcode": "77449", "addr:state": "TX", "addr:street": "Fry Road", "amenity": "school", "isced:level": "1", "name": "Ursula Stephens Elementary", "operator": "Katy Independent School District", "operator:short": "KISD", "operator:type": "public", "operator:wikidata": "Q6378510"}}, {"type": "way", "id": 603037755, "center": {"lat": 29.825991, "lon": -95.7452533}, "nodes": [1311410341, 5725924245, 5725924356, 5725924372, 5725924287, 1311410301, 1311410329, 5725924351, 356804954, 1311410287, 1311410297, 1311410314, 1311410341], "tags": {"addr:city": "Katy", "addr:housenumber": "3635", "addr:postcode": "77449", "addr:state": "TX", "addr:street": "Lakes of Bridgewater Drive", "amenity": "school", "ele": "39", "gnis:feature_id": "2006750", "isced:level": "2", "name": "T H McDonald Junior High School", "operator": "Katy Independent School District"}}, {"type": "way", "id": 608494295, "center": {"lat": 29.7998488, "lon": -95.7375847}, "nodes": [5764911575, 5764911576, 5764911577, 5764911578, 5764911579, 5764911580, 5764911581, 5764911582, 5764911583, 5764911584, 5764911585, 5764911586, 5764911587, 5764911588, 5764911589, 5764911590, 5764911591, 5764911592, 5764911593, 5764911594, 5764911595, 5764911575], "tags": {"amenity": "school", "isced:level": "0;1;2;3", "name": "British International School of Houston", "wikidata": "Q4971008"}}, {"type": "way", "id": 1120281583, "center": {"lat": 29.8325494, "lon": -95.7262946}, "nodes": [10246271979, 10246271980, 10246271981, 10246271982, 10246271983, 10246271979], "tags": {"addr:city": "Katy", "addr:housenumber": "20220", "addr:postcode": "77449", "addr:state": "TX", "addr:street": "Clay Road", "amenity": "school", "building": "school", "name": "Brosnahan Elementary", "operator": "Cypress-Fairbanks Independent School District", "operator:short": "CFISD", "operator:type": "public", "operator:wikidata": "Q5200304", "religion": "no", "website": "https://www.cfisd.net/Brosnahan"}}, {"type": "way", "id": 1367373175, "center": {"lat": 29.8030649, "lon": -95.7942414}, "nodes": [10728225005, 12663107232, 12663107233, 12663107234, 10728225005], "tags": {"addr:housenumber": "24406", "addr:postcode": "77493", "addr:street": "Franz Road", "amenity": "school", "name": "International Leadership Of Texas, Katy K-8", "website": "https://katyk8.iltexas.org/?utm_source=local&utm_medium=organic"}}, {"type": "way", "id": 1367373176, "center": {"lat": 29.8051929, "lon": -95.7952331}, "nodes": [356867089, 10728225005, 12663107232, 12663107235, 12663107236, 356867089], "tags": {"amenity": "school", "ele": "43", "gnis:feature_id": "2472552", "name": "Faith West Academy", "wikidata": "Q5431236"}}, {"type": "way", "id": 1367373213, "center": {"lat": 29.8134639, "lon": -95.782117}, "nodes": [12663146250, 12663146251, 12663146252, 12663146253, 12663146254, 12663146255, 12663146256, 12663146257, 12663146258, 12663146259, 12663146260, 12663146261, 12663146262, 12663146263, 12663146264, 12663146265, 12663146250], "tags": {"amenity": "school", "name": "Olga Leonard Elementary"}}]